[{"OBJECT_NAME":"STARLINK-4663","OBJECT_ID":"2022-107AA","EPOCH":"2026-03-09T17:41:32.412480","MEAN_MOTION":15.08839925,"ECCENTRICITY":0.00012331,"INCLINATION":53.2175,"RA_OF_ASC_NODE":253.7051,"ARG_OF_PERICENTER":93.3528,"MEAN_ANOMALY":266.7605,"EPHEMERIS_TYPE":0,"CLASSIFICATION_TYPE":"U","NORAD_CAT_ID":53724,"ELEMENT_SET_NO":999,"REV_AT_EPOCH":19442,"BSTAR":0.00018783567,"MEAN_MOTION_DOT":2.703e-5,"MEAN_MOTION_DDOT":0},{"OBJECT_NAME":"SEDNA-2","OBJECT_ID":"2025-009DQ","EPOCH":"2026-03-09T19:10:28.282944","MEAN_MOTION":15.10492622,"ECCENTRICITY":0.0010309,"INCLINATION":97.4615,"RA_OF_ASC_NODE":144.8075,"ARG_OF_PERICENTER":53.026,"MEAN_ANOMALY":307.1912,"EPHEMERIS_TYPE":0,"CLASSIFICATION_TYPE":"U","NORAD_CAT_ID":63153,"ELEMENT_SET_NO":999,"REV_AT_EPOCH":6311,"BSTAR":0.00049393403,"MEAN_MOTION_DOT":8.085e-5,"MEAN_MOTION_DDOT":0}]
