STARLINK-4663           
1 53724U 22107AA  26068.73718069  .00002703  00000+0  18784-3 0  9998
2 53724  53.2175 253.7051 0001233  93.3528 266.7605 15.08839925194420
SEDNA-2                 
1 63153U 25009DQ  26068.79893845  .00008085  00000+0  49393-3 0  9990
2 63153  97.4615 144.8075 0010309  53.0260 307.1912 15.10492622 63116
